     2.100          NAVIGATION                              RINEX VERSION / TYPE
fic2rin                                 01/13/2009 01:23:44 PGM / RUN BY / DATE
                                                            END OF HEADER
20 09  1 12 16  0  0.0  .938531011343D-04 -.102318153949D-11  .000000000000D+00
     .670000000000D+02 -.384375000000D+01  .478698511143D-08  .570967271079D-02
    -.229105353355D-06  .384712906089D-02  .111199915409D-04  .515370057869D+04
     .144000000000D+06 -.113621354103D-06  .301171637085D+01  .577419996262D-07
     .944245562292D+00  .156468750000D+03  .131147759260D+01 -.810069456930D-08
    -.640740975148D-09  .100000000000D+01  .151400000000D+04  .000000000000D+00
     .240000000000D+01  .000000000000D+00 -.651925802231D-08  .670000000000D+02
     .136806000000D+06  .400000000000D+01
21 09  1 12 16  0  0.0  .341958366334D-04 -.170530256582D-11  .000000000000D+00
     .590000000000D+02 -.343750000000D+01  .580881338897D-08  .112787719410D+01
     .782310962677D-07  .145395058207D-01  .461377203465D-05  .515363952065D+04
     .144000000000D+06 -.875443220139D-07  .200711643207D+01  .162050127983D-06
     .934336336002D+00  .278406250000D+03 -.265430120843D+01 -.880929551395D-08
    -.332871008271D-09  .100000000000D+01  .151400000000D+04  .000000000000D+00
     .240000000000D+01  .000000000000D+00 -.116415321827D-07  .590000000000D+02
     .136806000000D+06  .400000000000D+01
22 09  1 12 16  0  0.0  .206720083952D-03 -.454747350886D-12  .000000000000D+00
     .370000000000D+02  .906250000000D+01  .474984070707D-08 -.128240953618D+01
     .389292836189D-06  .494076858740D-02  .122357159853D-04  .515366989136D+04
     .144000000000D+06  .186264514923D-07  .307141639726D+01  .968575477600D-07
     .942340622052D+00  .133843750000D+03 -.181468691187D+01 -.806247869174D-08
    -.745388191267D-09  .100000000000D+01  .151400000000D+04  .000000000000D+00
     .340000000000D+01  .000000000000D+00 -.181607902050D-07  .370000000000D+02
     .136806000000D+06  .400000000000D+01
23 09  1 12 16  0  0.0  .384921673685D-03  .795807864051D-12  .000000000000D+00
     .850000000000D+02  .141843750000D+03  .412552898770D-08 -.264720254766D+01
     .741332769394D-05  .576421862934D-02  .832974910736D-05  .515365831375D+04
     .144000000000D+06 -.894069671631D-07 -.219832981822D+01  .149011611938D-07
     .970950139971D+00  .225812500000D+03  .288494904066D+01 -.788461414011D-08
     .311441544219D-09  .100000000000D+01  .151400000000D+04  .000000000000D+00
     .240000000000D+01  .000000000000D+00 -.200234353542D-07  .850000000000D+02
     .136806000000D+06  .400000000000D+01
24 09  1 12 16  0  0.0  .157023780048D-03  .306954461848D-11  .000000000000D+00
     .103000000000D+03 -.103125000000D+02  .539058168222D-08 -.246153843696D+00
    -.562518835068D-06  .705284147989D-02  .470131635666D-05  .515365341949D+04
     .144000000000D+06  .111758708954D-07  .203696655864D+01 -.106170773506D-06
     .950998711062D+00  .284375000000D+03 -.644613958233D+00 -.854857036798D-08
    -.166435504135D-09  .100000000000D+01  .151400000000D+04  .000000000000D+00
     .240000000000D+01  .000000000000D+00 -.139698386192D-08  .103000000000D+03
     .136806000000D+06  .400000000000D+01
25 09  1 12 16  0  0.0  .168929342180D-03  .264890331891D-10  .000000000000D+00
     .900000000000D+02  .256250000000D+01  .478769942690D-08  .282148909389D+00
     .102445483208D-06  .117942859652D-01  .387430191040D-06  .515367668152D+04
     .144000000000D+06 -.856816768646D-07 -.125014988551D+01 -.856816768646D-07
     .967699407262D+00  .376375000000D+03 -.123843144941D+01 -.876893668998D-08
     .657170230921D-10  .100000000000D+01  .151400000000D+04  .000000000000D+00
     .340000000000D+01  .000000000000D+00 -.745058059692D-08  .900000000000D+02
     .136806000000D+06  .400000000000D+01
26 09  1 12 16  0  0.0  .355020165443D-04  .341060513165D-11  .000000000000D+00
     .790000000000D+02  .160125000000D+03  .353121851800D-08 -.308201155950D+01
     .805407762527D-05  .194207296008D-01  .757165253162D-05  .515364399910D+04
     .144000000000D+06  .108033418655D-06 -.215154013896D+01 -.163912773132D-06
     .993154076511D+00  .249593750000D+03  .965100998502D+00 -.743530971049D-08
     .400016662300D-09  .100000000000D+01  .151400000000D+04  .000000000000D+00
     .240000000000D+01  .000000000000D+00 -.605359673500D-08  .790000000000D+02
     .136806000000D+06  .400000000000D+01
27 09  1 12 16  0  0.0  .157011672854D-04  .318323145621D-11  .000000000000D+00
     .120000000000D+02 -.712500000000D+01  .468840957679D-08 -.375255863873D+00
    -.230967998505D-06  .210769347614D-01  .774860382080D-06  .515519881630D+04
     .144000000000D+06 -.216066837311D-06 -.121438853853D+01  .175088644028D-06
     .972359594246D+00  .374500000000D+03 -.166371104799D+01 -.884786854924D-08
     .114290474943D-09  .100000000000D+01  .151400000000D+04  .000000000000D+00
     .240000000000D+01  .000000000000D+00 -.465661287308D-08  .120000000000D+02
     .136806000000D+06  .400000000000D+01
28 09  1 12 16  0  0.0 -.237738713622D-04  .000000000000D+00  .000000000000D+00
     .100000000000D+02 -.124343750000D+03  .428839291449D-08 -.932344258509D+00
    -.632368028164D-05  .145078990608D-01  .983476638794D-05  .515364460754D+04
     .144000000000D+06 -.204890966415D-07 -.791019745033D-01  .353902578354D-06
     .965964506379D+00  .192406250000D+03 -.206723499348D+01 -.806855037322D-08
    -.154649298907D-09  .100000000000D+01  .151400000000D+04  .000000000000D+00
     .240000000000D+01  .000000000000D+00 -.102445483208D-07  .100000000000D+02
     .136806000000D+06  .400000000000D+01
29 09  1 12 16  0  0.0 -.186306424439D-04  .272848410532D-11  .000000000000D+00
     .560000000000D+02  .157812500000D+02  .466519432407D-08  .119265399681D+01
     .804662704468D-06  .321976502892D-02  .112336128950D-04  .515375882721D+04
     .144000000000D+06  .745058059692D-08  .962121449843D+00 -.335276126862D-07
     .959703816796D+00  .164718750000D+03 -.134063197875D+01 -.796783189218D-08
     .742173771659D-09  .100000000000D+01  .151400000000D+04  .000000000000D+00
     .240000000000D+01  .000000000000D+00 -.884756445885D-08  .560000000000D+02
     .136806000000D+06  .400000000000D+01
30 09  1 12 16  0  0.0  .119372736663D-03  .238742359215D-11  .000000000000D+00
     .136000000000D+03 -.152656250000D+03  .467983779117D-08 -.509780200152D+00
    -.799074769020D-05  .111628823215D-01  .963173806667D-05  .515366273880D+04
     .144000000000D+06 -.819563865662D-07 -.149748035275D+00  .104308128357D-06
     .951183996951D+00  .192781250000D+03  .141359389882D+01 -.839177812267D-08
    -.197151069276D-09  .100000000000D+01  .151400000000D+04  .000000000000D+00
     .340000000000D+01  .000000000000D+00 -.791624188423D-08  .136000000000D+03
     .136806000000D+06  .400000000000D+01
31 09  1 12 16  0  0.0 -.474262051284D-04 -.147792889038D-11  .000000000000D+00
     .460000000000D+02 -.125937500000D+02  .460197740512D-08  .198833251712D+01
    -.704079866409D-06  .712861574721D-02 -.484287738800D-06  .515361977196D+04
     .144000000000D+06  .558793544769D-07 -.115810382898D+01 -.204890966415D-07
     .970804345555D+00  .390531250000D+03 -.121001006715D+01 -.848963934184D-08
    -.328585115460D-10  .100000000000D+01  .151400000000D+04  .000000000000D+00
     .340000000000D+01  .000000000000D+00 -.130385160446D-07  .460000000000D+02
     .136806000000D+06  .400000000000D+01
32 09  1 12 16  0  0.0  .304006040096D-03 -.261479726760D-11  .000000000000D+00
     .900000000000D+02  .177500000000D+02  .405624038726D-08  .284331914075D+01
     .895932316780D-06  .136571358889D-01  .123046338558D-04  .515366532135D+04
     .144000000000D+06  .109896063805D-06  .311833563108D+01  .707805156708D-07
     .966279532621D+00  .139875000000D+03 -.121365994828D+01 -.747816863860D-08
    -.666099174276D-09  .100000000000D+01  .151400000000D+04  .000000000000D+00
     .340000000000D+01  .000000000000D+00 -.325962901115D-08  .900000000000D+02
     .136806000000D+06  .400000000000D+01
32 09  1 12 15 59 44.0  .304005108774D-03 -.261479726760D-11  .000000000000D+00
     .130000000000D+02  .177500000000D+02  .405624038726D-08  .284098581860D+01
     .895932316780D-06  .136571357725D-01  .123046338558D-04  .515366532326D+04
     .143984000000D+06  .109896063805D-06  .311833574958D+01  .707805156708D-07
     .966279557491D+00  .139875000000D+03 -.121366036813D+01 -.747816863860D-08
    -.666099174276D-09  .100000000000D+01  .151400000000D+04  .000000000000D+00
     .240000000000D+01  .000000000000D+00 -.325962901115D-08  .130000000000D+02
     .140226000000D+06  .400000000000D+01
11 09  1 12 15 59 44.0  .107339583337D-04 -.113686837722D-11  .000000000000D+00
     .000000000000D+00  .202187500000D+02  .681778398807D-08  .191627069689D+01
     .992789864540D-06  .913496094290D-02  .426359474659D-05  .515365579224D+04
     .143984000000D+06 -.271946191788D-06  .178111862539D+01  .931322574615D-08
     .889493925049D+00  .260593750000D+03  .674931181387D+00 -.919895460195D-08
     .145720355552D-09  .100000000000D+01  .151400000000D+04  .000000000000D+00
     .240000000000D+01  .000000000000D+00 -.121071934700D-07  .000000000000D+00
     .142506000000D+06  .400000000000D+01
11 09  1 12 17 59 44.0  .107260420918D-04 -.113686837722D-11  .000000000000D+00
     .220000000000D+02  .211875000000D+02  .673813781334D-08  .296652078661D+01
     .994652509689D-06  .913533614948D-02  .435113906860D-05  .515365479088D+04
     .151184000000D+06 -.931322574615D-07  .178105305594D+01 -.132247805595D-06
     .889495938025D+00  .256875000000D+03  .674889625736D+00 -.900894668736D-08
     .179650340301D-09  .100000000000D+01  .151400000000D+04  .000000000000D+00
     .240000000000D+01  .000000000000D+00 -.121071934700D-07  .220000000000D+02
     .144006000000D+06  .400000000000D+01
